{"type": "FeatureCollection", "features": [ {"type": "Feature", "properties": {"norad_id": 37216, "name": "COSMO-SKYMED 4", "group": "resource", "lat": -81.90379797906728, "lon": -88.15427721458379, "alt_km": 630.7623302413285, "timestamp": "2025-12-13T08:49:15.350291+00:00", "meta": {"OBJECT_NAME": "COSMO-SKYMED 4", "OBJECT_ID": "2010-060A", "EPOCH": "2025-12-13T01:08:01.301856", "MEAN_MOTION": 14.82169217, "ECCENTRICITY": 0.00013476, "INCLINATION": 97.8809, "RA_OF_ASC_NODE": 168.3659, "ARG_OF_PERICENTER": 76.9212, "MEAN_ANOMALY": 283.2151, "EPHEMERIS_TYPE": 0, "CLASSIFICATION_TYPE": "U", "NORAD_CAT_ID": 37216, "ELEMENT_SET_NO": 999, "REV_AT_EPOCH": 81699, "BSTAR": 0.00010904155, "MEAN_MOTION_DOT": 8.16e-06, "MEAN_MOTION_DDOT": 0}, "tle": {"line1": "1 37216U 10060A   25347.04723729  .00000816  00000+0  10904-3 0  9992", "line2": "2 37216  97.8809 168.3659 0001347  76.9212 283.2151 14.82169217816998"}}, "geometry": {"type": "Point", "coordinates": [-88.15427721458379, -81.90379797906728]}}, {"type": "Feature", "properties": {"norad_id": 37387, "name": "RESOURCESAT-2", "group": "resource", "lat": 79.07329396937797, "lon": -75.83139446295405, "alt_km": 809.9522986954353, "timestamp": "2025-12-13T08:49:15.350301+00:00", "meta": {"OBJECT_NAME": "RESOURCESAT-2", "OBJECT_ID": "2011-015A", "EPOCH": "2025-12-12T22:14:02.571360", "MEAN_MOTION": 14.21597368, "ECCENTRICITY": 0.0006432, "INCLINATION": 98.7878, "RA_OF_ASC_NODE": 50.4774, "ARG_OF_PERICENTER": 42.2892, "MEAN_ANOMALY": 317.878, "EPHEMERIS_TYPE": 0, "CLASSIFICATION_TYPE": "U", "NORAD_CAT_ID": 37387, "ELEMENT_SET_NO": 999, "REV_AT_EPOCH": 75971, "BSTAR": 0.00013092334, "MEAN_MOTION_DOT": 2.43e-06, "MEAN_MOTION_DDOT": 0}, "tle": {"line1": "1 37387U 11015A   25346.92641865  .00000243  00000+0  13092-3 0  9993", "line2": "2 37387  98.7878  50.4774 0006432  42.2892 317.8780 14.21597368759715"}}, "geometry": {"type": "Point", "coordinates": [-75.83139446295405, 79.07329396937797]}}, {"type": "Feature", "properties": {"norad_id": 37781, "name": "HAIYANG-2A", "group": "resource", "lat": 46.895390224252075, "lon": -21.833529937369946, "alt_km": 962.7952679564505, "timestamp": "2025-12-13T08:49:15.350312+00:00", "meta": {"OBJECT_NAME": "HAIYANG-2A", "OBJECT_ID": "2011-043A", "EPOCH": "2025-12-12T23:52:57.643104", "MEAN_MOTION": 13.78834734, "ECCENTRICITY": 0.00016494, "INCLINATION": 99.3384, "RA_OF_ASC_NODE": 347.9255, "ARG_OF_PERICENTER": 82.4875, "MEAN_ANOMALY": 277.6464, "EPHEMERIS_TYPE": 0, "CLASSIFICATION_TYPE": "U", "NORAD_CAT_ID": 37781, "ELEMENT_SET_NO": 999, "REV_AT_EPOCH": 72102, "BSTAR": -6.4391049e-05, "MEAN_MOTION_DOT": -1.1e-06, "MEAN_MOTION_DDOT": 0}, "tle": {"line1": "1 37781U 11043A   25346.99511161 -.00000110  00000+0 -64391-4 0  9998", "line2": "2 37781  99.3384 347.9255 0001649  82.4875 277.6464 13.78834734721029"}}, "geometry": {"type": "Point", "coordinates": [-21.833529937369946, 46.895390224252075]}}, {"type": "Feature", "properties": {"norad_id": 37791, "name": "RASAT", "group": "resource", "lat": 5.079316692190743, "lon": 75.89328040502399, "alt_km": 661.822405955244, "timestamp": "2025-12-13T08:49:15.350323+00:00", "meta": {"OBJECT_NAME": "RASAT", "OBJECT_ID": "2011-044D", "EPOCH": "2025-12-13T01:10:59.253024", "MEAN_MOTION": 14.67911167, "ECCENTRICITY": 0.0021913, "INCLINATION": 98.0645, "RA_OF_ASC_NODE": 76.3019, "ARG_OF_PERICENTER": 64.1488, "MEAN_ANOMALY": 60.5782, "EPHEMERIS_TYPE": 0, "CLASSIFICATION_TYPE": "U", "NORAD_CAT_ID": 37791, "ELEMENT_SET_NO": 999, "REV_AT_EPOCH": 76587, "BSTAR": 0.0002249344, "MEAN_MOTION_DOT": 1.242e-05, "MEAN_MOTION_DDOT": 0}, "tle": {"line1": "1 37791U 11044D   25347.04929691  .00001242  00000+0  22493-3 0  9999", "line2": "2 37791  98.0645  76.3019 0021913  64.1488  60.5782 14.67911167765878"}}, "geometry": {"type": "Point", "coordinates": [75.89328040502399, 5.079316692190743]}}, {"type": "Feature", "properties": {"norad_id": 37841, "name": "SRMSAT", "group": "resource", "lat": 10.296068807193922, "lon": 134.1662919778509, "alt_km": 847.698023643442, "timestamp": "2025-12-13T08:49:15.350333+00:00", "meta": {"OBJECT_NAME": "SRMSAT", "OBJECT_ID": "2011-058D", "EPOCH": "2025-12-13T00:55:22.594944", "MEAN_MOTION": 14.11511594, "ECCENTRICITY": 0.00117679, "INCLINATION": 19.971, "RA_OF_ASC_NODE": 106.1426, "ARG_OF_PERICENTER": 316.7615, "MEAN_ANOMALY": 198.8861, "EPHEMERIS_TYPE": 0, "CLASSIFICATION_TYPE": "U", "NORAD_CAT_ID": 37841, "ELEMENT_SET_NO": 999, "REV_AT_EPOCH": 73148, "BSTAR": 0.00013117397, "MEAN_MOTION_DOT": 5.06e-06, "MEAN_MOTION_DDOT": 0}, "tle": {"line1": "1 37841U 11058D   25347.03845596  .00000506  00000+0  13117-3 0  9995", "line2": "2 37841  19.9710 106.1426 0011767 316.7615 198.8861 14.11511594731489"}}, "geometry": {"type": "Point", "coordinates": [134.1662919778509, 10.296068807193922]}}, {"type": "Feature", "properties": {"norad_id": 38012, "name": "PLEIADES 1A", "group": "resource", "lat": 39.90285505964578, "lon": -112.96418160560573, "alt_km": 694.3485239041102, "timestamp": "2025-12-13T08:49:15.350344+00:00", "meta": {"OBJECT_NAME": "PLEIADES 1A", "OBJECT_ID": "2011-076F", "EPOCH": "2025-12-13T00:30:43.254144", "MEAN_MOTION": 14.58562174, "ECCENTRICITY": 0.00013252, "INCLINATION": 98.1818, "RA_OF_ASC_NODE": 59.7851, "ARG_OF_PERICENTER": 74.2426, "MEAN_ANOMALY": 48.477, "EPHEMERIS_TYPE": 0, "CLASSIFICATION_TYPE": "U", "NORAD_CAT_ID": 38012, "ELEMENT_SET_NO": 999, "REV_AT_EPOCH": 74485, "BSTAR": 0.00017948983, "MEAN_MOTION_DOT": 7.89e-06, "MEAN_MOTION_DDOT": 0}, "tle": {"line1": "1 38012U 11076F   25347.02133396  .00000789  00000+0  17949-3 0  9993", "line2": "2 38012  98.1818  59.7851 0001325  74.2426  48.4770 14.58562174744853"}}, "geometry": {"type": "Point", "coordinates": [-112.96418160560573, 39.90285505964578]}}, {"type": "Feature", "properties": {"norad_id": 38038, "name": "ZIYUAN 1-02C (ZY 1-02C)", "group": "resource", "lat": 0.7450172467091538, "lon": 53.25859839160962, "alt_km": 771.6015800420646, "timestamp": "2025-12-13T08:49:15.350354+00:00", "meta": {"OBJECT_NAME": "ZIYUAN 1-02C (ZY 1-02C)", "OBJECT_ID": "2011-079A", "EPOCH": "2025-12-13T01:00:51.257088", "MEAN_MOTION": 14.38013046, "ECCENTRICITY": 0.00072061, "INCLINATION": 98.4328, "RA_OF_ASC_NODE": 53.0499, "ARG_OF_PERICENTER": 137.541, "MEAN_ANOMALY": 340.4418, "EPHEMERIS_TYPE": 0, "CLASSIFICATION_TYPE": "U", "NORAD_CAT_ID": 38038, "ELEMENT_SET_NO": 999, "REV_AT_EPOCH": 73245, "BSTAR": 0.00032214145, "MEAN_MOTION_DOT": 9.32e-06, "MEAN_MOTION_DDOT": 0}, "tle": {"line1": "1 38038U 11079A   25347.04225992  .00000932  00000+0  32214-3 0  9992", "line2": "2 38038  98.4328  53.0499 0007206 137.5410 340.4418 14.38013046732459"}}, "geometry": {"type": "Point", "coordinates": [53.25859839160962, 0.7450172467091538]}}, {"type": "Feature", "properties": {"norad_id": 38046, "name": "ZIYUAN 3-1 (ZY 3-1)", "group": "resource", "lat": 82.74649039910058, "lon": -44.381707034460185, "alt_km": 355.3945812753518, "timestamp": "2025-12-13T08:49:15.350365+00:00", "meta": {"OBJECT_NAME": "ZIYUAN 3-1 (ZY 3-1)", "OBJECT_ID": "2012-001A", "EPOCH": "2025-12-13T00:46:46.126848", "MEAN_MOTION": 15.68632332, "ECCENTRICITY": 0.00017419, "INCLINATION": 97.1753, "RA_OF_ASC_NODE": 53.4564, "ARG_OF_PERICENTER": 351.2292, "MEAN_ANOMALY": 8.8939, "EPHEMERIS_TYPE": 0, "CLASSIFICATION_TYPE": "U", "NORAD_CAT_ID": 38046, "ELEMENT_SET_NO": 999, "REV_AT_EPOCH": 77501, "BSTAR": 0.0008821512, "MEAN_MOTION_DOT": 0.00100992, "MEAN_MOTION_DDOT": 0}, "tle": {"line1": "1 38046U 12001A   25347.03247832  .00100992  00000+0  88215-3 0  9992", "line2": "2 38046  97.1753  53.4564 0001741 351.2292   8.8939 15.68632332775015"}}, "geometry": {"type": "Point", "coordinates": [-44.381707034460185, 82.74649039910058]}}, {"type": "Feature", "properties": {"norad_id": 38338, "name": "ARIRANG-3 (KOMPSAT-3)", "group": "resource", "lat": 43.43265724196995, "lon": -66.01381396685588, "alt_km": 682.5563818078126, "timestamp": "2025-12-13T08:49:15.350375+00:00", "meta": {"OBJECT_NAME": "ARIRANG-3 (KOMPSAT-3)", "OBJECT_ID": "2012-025B", "EPOCH": "2025-12-13T00:24:21.583872", "MEAN_MOTION": 14.61713357, "ECCENTRICITY": 0.00053454, "INCLINATION": 98.3322, "RA_OF_ASC_NODE": 301.6084, "ARG_OF_PERICENTER": 337.8639, "MEAN_ANOMALY": 22.233, "EPHEMERIS_TYPE": 0, "CLASSIFICATION_TYPE": "U", "NORAD_CAT_ID": 38338, "ELEMENT_SET_NO": 999, "REV_AT_EPOCH": 72414, "BSTAR": 0.00019881245, "MEAN_MOTION_DOT": 9.42e-06, "MEAN_MOTION_DDOT": 0}, "tle": {"line1": "1 38338U 12025B   25347.01691648  .00000942  00000+0  19881-3 0  9995", "line2": "2 38338  98.3322 301.6084 0005345 337.8639  22.2330 14.61713357724140"}}, "geometry": {"type": "Point", "coordinates": [-66.01381396685588, 43.43265724196995]}}, {"type": "Feature", "properties": {"norad_id": 38709, "name": "EXACTVIEW-1 (ADS-1B)", "group": "resource", "lat": -40.74619395437343, "lon": 103.58588950595014, "alt_km": 808.9120384234766, "timestamp": "2025-12-13T08:49:15.350386+00:00", "meta": {"OBJECT_NAME": "EXACTVIEW-1 (ADS-1B)", "OBJECT_ID": "2012-039C", "EPOCH": "2025-12-12T21:13:02.712288", "MEAN_MOTION": 14.24908204, "ECCENTRICITY": 0.0010667, "INCLINATION": 98.9636, "RA_OF_ASC_NODE": 95.2771, "ARG_OF_PERICENTER": 353.8159, "MEAN_ANOMALY": 6.2886, "EPHEMERIS_TYPE": 0, "CLASSIFICATION_TYPE": "U", "NORAD_CAT_ID": 38709, "ELEMENT_SET_NO": 999, "REV_AT_EPOCH": 69617, "BSTAR": 0.00013106237, "MEAN_MOTION_DOT": 2.6e-06, "MEAN_MOTION_DDOT": 0}, "tle": {"line1": "1 38709U 12039C   25346.88405917  .00000260  00000+0  13106-3 0  9995", "line2": "2 38709  98.9636  95.2771 0010667 353.8159   6.2886 14.24908204696178"}}, "geometry": {"type": "Point", "coordinates": [103.58588950595014, -40.74619395437343]}}]}